[{"OBJECT_NAME":"ONEWEB-0427","OBJECT_ID":"2021-132AG","EPOCH":"2025-08-14T12:10:28.459776","MEAN_MOTION":13.18687756,"ECCENTRICITY":0.0001808,"INCLINATION":87.9134,"RA_OF_ASC_NODE":36.3423,"ARG_OF_PERICENTER":98.8965,"MEAN_ANOMALY":261.2371,"EPHEMERIS_TYPE":0,"CLASSIFICATION_TYPE":"U","NORAD_CAT_ID":50499,"ELEMENT_SET_NO":999,"REV_AT_EPOCH":18119,"BSTAR":0.00027846,"MEAN_MOTION_DOT":1.23e-6,"MEAN_MOTION_DDOT":0},{"OBJECT_NAME":"ONEWEB-0429","OBJECT_ID":"2021-132AH","EPOCH":"2025-08-14T11:51:29.393280","MEAN_MOTION":13.18686861,"ECCENTRICITY":0.000179,"INCLINATION":87.9138,"RA_OF_ASC_NODE":36.3739,"ARG_OF_PERICENTER":86.2515,"MEAN_ANOMALY":273.8821,"EPHEMERIS_TYPE":0,"CLASSIFICATION_TYPE":"U","NORAD_CAT_ID":50500,"ELEMENT_SET_NO":999,"REV_AT_EPOCH":18116,"BSTAR":0.00012503,"MEAN_MOTION_DOT":6.2e-7,"MEAN_MOTION_DDOT":0},{"OBJECT_NAME":"ONEWEB-0430","OBJECT_ID":"2021-132AJ","EPOCH":"2025-08-14T11:34:51.900096","MEAN_MOTION":13.18686168,"ECCENTRICITY":0.0001536,"INCLINATION":87.914,"RA_OF_ASC_NODE":36.3704,"ARG_OF_PERICENTER":87.0902,"MEAN_ANOMALY":273.0406,"EPHEMERIS_TYPE":0,"CLASSIFICATION_TYPE":"U","NORAD_CAT_ID":50501,"ELEMENT_SET_NO":999,"REV_AT_EPOCH":18120,"BSTAR":8.8525e-5,"MEAN_MOTION_DOT":4.8e-7,"MEAN_MOTION_DDOT":0},{"OBJECT_NAME":"ONEWEB-0432","OBJECT_ID":"2021-132AK","EPOCH":"2025-08-14T12:20:17.908224","MEAN_MOTION":13.1868866,"ECCENTRICITY":0.0001423,"INCLINATION":87.913,"RA_OF_ASC_NODE":36.3448,"ARG_OF_PERICENTER":121.8465,"MEAN_ANOMALY":238.2805,"EPHEMERIS_TYPE":0,"CLASSIFICATION_TYPE":"U","NORAD_CAT_ID":50502,"ELEMENT_SET_NO":999,"REV_AT_EPOCH":18116,"BSTAR":0.00024174,"MEAN_MOTION_DOT":1.08e-6,"MEAN_MOTION_DDOT":0},{"OBJECT_NAME":"ONEWEB-0440","OBJECT_ID":"2021-132AL","EPOCH":"2025-08-14T12:03:22.415328","MEAN_MOTION":13.18687064,"ECCENTRICITY":0.0002177,"INCLINATION":87.9139,"RA_OF_ASC_NODE":36.3557,"ARG_OF_PERICENTER":85.4382,"MEAN_ANOMALY":274.6998,"EPHEMERIS_TYPE":0,"CLASSIFICATION_TYPE":"U","NORAD_CAT_ID":50503,"ELEMENT_SET_NO":999,"REV_AT_EPOCH":18115,"BSTAR":0.00011603,"MEAN_MOTION_DOT":5.9e-7,"MEAN_MOTION_DDOT":0},{"OBJECT_NAME":"ONEWEB-0450","OBJECT_ID":"2021-132AM","EPOCH":"2025-08-14T11:54:05.246784","MEAN_MOTION":13.18686204,"ECCENTRICITY":0.0001715,"INCLINATION":87.9137,"RA_OF_ASC_NODE":36.3828,"ARG_OF_PERICENTER":81.9685,"MEAN_ANOMALY":278.1641,"EPHEMERIS_TYPE":0,"CLASSIFICATION_TYPE":"U","NORAD_CAT_ID":50504,"ELEMENT_SET_NO":999,"REV_AT_EPOCH":18118,"BSTAR":0.00014766,"MEAN_MOTION_DOT":7.1e-7,"MEAN_MOTION_DDOT":0},{"OBJECT_NAME":"ONEWEB-0410","OBJECT_ID":"2022-012A","EPOCH":"2025-08-14T12:15:58.555296","MEAN_MOTION":13.17649212,"ECCENTRICITY":0.0002512,"INCLINATION":87.9034,"RA_OF_ASC_NODE":66.8675,"ARG_OF_PERICENTER":122.018,"MEAN_ANOMALY":238.1196,"EPHEMERIS_TYPE":0,"CLASSIFICATION_TYPE":"U","NORAD_CAT_ID":51622,"ELEMENT_SET_NO":999,"REV_AT_EPOCH":17331,"BSTAR":5.4288e-5,"MEAN_MOTION_DOT":3.4e-7,"MEAN_MOTION_DDOT":0},{"OBJECT_NAME":"ONEWEB-0411","OBJECT_ID":"2022-012B","EPOCH":"2025-08-14T14:10:05.255904","MEAN_MOTION":13.10372597,"ECCENTRICITY":0.0001252,"INCLINATION":87.8778,"RA_OF_ASC_NODE":97.4199,"ARG_OF_PERICENTER":65.1916,"MEAN_ANOMALY":294.9342,"EPHEMERIS_TYPE":0,"CLASSIFICATION_TYPE":"U","NORAD_CAT_ID":51623,"ELEMENT_SET_NO":999,"REV_AT_EPOCH":16913,"BSTAR":-0.0019069,"MEAN_MOTION_DOT":-6.53e-6,"MEAN_MOTION_DDOT":0},{"OBJECT_NAME":"ONEWEB-0415","OBJECT_ID":"2022-012C","EPOCH":"2025-08-14T14:05:18.468384","MEAN_MOTION":13.10372162,"ECCENTRICITY":0.0001454,"INCLINATION":87.8776,"RA_OF_ASC_NODE":97.4234,"ARG_OF_PERICENTER":74.4875,"MEAN_ANOMALY":285.6413,"EPHEMERIS_TYPE":0,"CLASSIFICATION_TYPE":"U","NORAD_CAT_ID":51624,"ELEMENT_SET_NO":999,"REV_AT_EPOCH":16913,"BSTAR":-0.0015538,"MEAN_MOTION_DOT":-5.3e-6,"MEAN_MOTION_DDOT":0},{"OBJECT_NAME":"ONEWEB-0416","OBJECT_ID":"2022-012D","EPOCH":"2025-08-14T14:22:02.647200","MEAN_MOTION":13.10373666,"ECCENTRICITY":0.000168,"INCLINATION":87.8781,"RA_OF_ASC_NODE":97.4404,"ARG_OF_PERICENTER":80.8102,"MEAN_ANOMALY":279.3216,"EPHEMERIS_TYPE":0,"CLASSIFICATION_TYPE":"U","NORAD_CAT_ID":51625,"ELEMENT_SET_NO":999,"REV_AT_EPOCH":16917,"BSTAR":-0.0018768,"MEAN_MOTION_DOT":-6.42e-6,"MEAN_MOTION_DDOT":0},{"OBJECT_NAME":"ONEWEB-0422","OBJECT_ID":"2022-012E","EPOCH":"2025-08-14T12:30:32.696064","MEAN_MOTION":13.17648897,"ECCENTRICITY":0.0002177,"INCLINATION":87.9032,"RA_OF_ASC_NODE":66.8716,"ARG_OF_PERICENTER":68.6894,"MEAN_ANOMALY":291.4469,"EPHEMERIS_TYPE":0,"CLASSIFICATION_TYPE":"U","NORAD_CAT_ID":51626,"ELEMENT_SET_NO":999,"REV_AT_EPOCH":17342,"BSTAR":0.00010866,"MEAN_MOTION_DOT":5.5e-7,"MEAN_MOTION_DDOT":0},{"OBJECT_NAME":"ONEWEB-0423","OBJECT_ID":"2022-012F","EPOCH":"2025-08-14T12:20:49.887456","MEAN_MOTION":13.17648749,"ECCENTRICITY":0.0001895,"INCLINATION":87.9034,"RA_OF_ASC_NODE":66.8812,"ARG_OF_PERICENTER":85.915,"MEAN_ANOMALY":274.2198,"EPHEMERIS_TYPE":0,"CLASSIFICATION_TYPE":"U","NORAD_CAT_ID":51627,"ELEMENT_SET_NO":999,"REV_AT_EPOCH":17331,"BSTAR":-6.6672e-5,"MEAN_MOTION_DOT":-1.3e-7,"MEAN_MOTION_DDOT":0},{"OBJECT_NAME":"ONEWEB-0425","OBJECT_ID":"2022-012G","EPOCH":"2025-08-14T14:36:24.067296","MEAN_MOTION":13.10376185,"ECCENTRICITY":0.0001917,"INCLINATION":87.8785,"RA_OF_ASC_NODE":97.408,"ARG_OF_PERICENTER":88.4334,"MEAN_ANOMALY":271.7013,"EPHEMERIS_TYPE":0,"CLASSIFICATION_TYPE":"U","NORAD_CAT_ID":51628,"ELEMENT_SET_NO":999,"REV_AT_EPOCH":16917,"BSTAR":-0.00066508,"MEAN_MOTION_DOT":-2.2e-6,"MEAN_MOTION_DDOT":0},{"OBJECT_NAME":"ONEWEB-0428","OBJECT_ID":"2022-012H","EPOCH":"2025-08-14T08:37:49.972224","MEAN_MOTION":13.10372743,"ECCENTRICITY":0.0001759,"INCLINATION":87.878,"RA_OF_ASC_NODE":97.4795,"ARG_OF_PERICENTER":73.9453,"MEAN_ANOMALY":286.1868,"EPHEMERIS_TYPE":0,"CLASSIFICATION_TYPE":"U","NORAD_CAT_ID":51629,"ELEMENT_SET_NO":999,"REV_AT_EPOCH":16910,"BSTAR":-0.0019749,"MEAN_MOTION_DOT":-6.77e-6,"MEAN_MOTION_DDOT":0},{"OBJECT_NAME":"ONEWEB-0431","OBJECT_ID":"2022-012J","EPOCH":"2025-08-14T15:14:28.129056","MEAN_MOTION":13.10372193,"ECCENTRICITY":0.0001387,"INCLINATION":87.8781,"RA_OF_ASC_NODE":97.3946,"ARG_OF_PERICENTER":57.0045,"MEAN_ANOMALY":303.1215,"EPHEMERIS_TYPE":0,"CLASSIFICATION_TYPE":"U","NORAD_CAT_ID":51630,"ELEMENT_SET_NO":999,"REV_AT_EPOCH":16919,"BSTAR":0.0017252,"MEAN_MOTION_DOT":6.15e-6,"MEAN_MOTION_DDOT":0},{"OBJECT_NAME":"ONEWEB-0434","OBJECT_ID":"2022-012K","EPOCH":"2025-08-14T14:41:11.368032","MEAN_MOTION":13.10375095,"ECCENTRICITY":0.0002403,"INCLINATION":87.8784,"RA_OF_ASC_NODE":97.442,"ARG_OF_PERICENTER":89.9273,"MEAN_ANOMALY":270.213,"EPHEMERIS_TYPE":0,"CLASSIFICATION_TYPE":"U","NORAD_CAT_ID":51631,"ELEMENT_SET_NO":999,"REV_AT_EPOCH":16917,"BSTAR":0.00028136,"MEAN_MOTION_DOT":1.11e-6,"MEAN_MOTION_DDOT":0},{"OBJECT_NAME":"ONEWEB-0435","OBJECT_ID":"2022-012L","EPOCH":"2025-08-14T11:13:14.281824","MEAN_MOTION":13.10383724,"ECCENTRICITY":0.0001987,"INCLINATION":87.8782,"RA_OF_ASC_NODE":97.4632,"ARG_OF_PERICENTER":66.9299,"MEAN_ANOMALY":293.2038,"EPHEMERIS_TYPE":0,"CLASSIFICATION_TYPE":"U","NORAD_CAT_ID":51632,"ELEMENT_SET_NO":999,"REV_AT_EPOCH":16914,"BSTAR":-0.0034464,"MEAN_MOTION_DOT":-1.19e-5,"MEAN_MOTION_DDOT":0},{"OBJECT_NAME":"ONEWEB-0436","OBJECT_ID":"2022-012M","EPOCH":"2025-08-14T12:08:40.636896","MEAN_MOTION":13.17648846,"ECCENTRICITY":0.0001772,"INCLINATION":87.9025,"RA_OF_ASC_NODE":66.8664,"ARG_OF_PERICENTER":78.8498,"MEAN_ANOMALY":281.2832,"EPHEMERIS_TYPE":0,"CLASSIFICATION_TYPE":"U","NORAD_CAT_ID":51633,"ELEMENT_SET_NO":999,"REV_AT_EPOCH":17329,"BSTAR":0.00019183,"MEAN_MOTION_DOT":8.7e-7,"MEAN_MOTION_DDOT":0},{"OBJECT_NAME":"ONEWEB-0438","OBJECT_ID":"2022-012N","EPOCH":"2025-08-14T14:29:13.034112","MEAN_MOTION":13.1037601,"ECCENTRICITY":0.0001812,"INCLINATION":87.8781,"RA_OF_ASC_NODE":97.437,"ARG_OF_PERICENTER":84.4645,"MEAN_ANOMALY":275.6689,"EPHEMERIS_TYPE":0,"CLASSIFICATION_TYPE":"U","NORAD_CAT_ID":51634,"ELEMENT_SET_NO":999,"REV_AT_EPOCH":16919,"BSTAR":-0.0011436,"MEAN_MOTION_DOT":-3.87e-6,"MEAN_MOTION_DDOT":0},{"OBJECT_NAME":"ONEWEB-0439","OBJECT_ID":"2022-012P","EPOCH":"2025-08-14T09:04:08.310144","MEAN_MOTION":13.10376512,"ECCENTRICITY":0.0001841,"INCLINATION":87.8785,"RA_OF_ASC_NODE":97.4702,"ARG_OF_PERICENTER":78.6678,"MEAN_ANOMALY":281.4656,"EPHEMERIS_TYPE":0,"CLASSIFICATION_TYPE":"U","NORAD_CAT_ID":51635,"ELEMENT_SET_NO":999,"REV_AT_EPOCH":16914,"BSTAR":-0.0006884,"MEAN_MOTION_DOT":-2.28e-6,"MEAN_MOTION_DDOT":0},{"OBJECT_NAME":"ONEWEB-0442","OBJECT_ID":"2022-012Q","EPOCH":"2025-08-14T11:57:43.632288","MEAN_MOTION":13.17650979,"ECCENTRICITY":0.000183,"INCLINATION":87.9025,"RA_OF_ASC_NODE":66.9217,"ARG_OF_PERICENTER":107.1981,"MEAN_ANOMALY":252.9351,"EPHEMERIS_TYPE":0,"CLASSIFICATION_TYPE":"U","NORAD_CAT_ID":51636,"ELEMENT_SET_NO":999,"REV_AT_EPOCH":17328,"BSTAR":-7.5005e-5,"MEAN_MOTION_DOT":-1.6e-7,"MEAN_MOTION_DDOT":0},{"OBJECT_NAME":"ONEWEB-0443","OBJECT_ID":"2022-012R","EPOCH":"2025-08-14T12:25:39.694656","MEAN_MOTION":13.17648182,"ECCENTRICITY":0.0002135,"INCLINATION":87.9018,"RA_OF_ASC_NODE":66.9272,"ARG_OF_PERICENTER":90.5124,"MEAN_ANOMALY":269.6252,"EPHEMERIS_TYPE":0,"CLASSIFICATION_TYPE":"U","NORAD_CAT_ID":51637,"ELEMENT_SET_NO":999,"REV_AT_EPOCH":17333,"BSTAR":-0.00016135,"MEAN_MOTION_DOT":-5.0e-7,"MEAN_MOTION_DDOT":0},{"OBJECT_NAME":"ONEWEB-0444","OBJECT_ID":"2022-012S","EPOCH":"2025-08-14T14:19:39.203328","MEAN_MOTION":13.10373683,"ECCENTRICITY":0.0001879,"INCLINATION":87.8778,"RA_OF_ASC_NODE":97.4273,"ARG_OF_PERICENTER":77.2128,"MEAN_ANOMALY":282.9209,"EPHEMERIS_TYPE":0,"CLASSIFICATION_TYPE":"U","NORAD_CAT_ID":51638,"ELEMENT_SET_NO":999,"REV_AT_EPOCH":16918,"BSTAR":-0.0020486,"MEAN_MOTION_DOT":-7.02e-6,"MEAN_MOTION_DDOT":0},{"OBJECT_NAME":"ONEWEB-0445","OBJECT_ID":"2022-012T","EPOCH":"2025-08-14T14:50:44.857536","MEAN_MOTION":13.10375241,"ECCENTRICITY":0.0001612,"INCLINATION":87.8782,"RA_OF_ASC_NODE":97.3749,"ARG_OF_PERICENTER":83.1794,"MEAN_ANOMALY":276.9516,"EPHEMERIS_TYPE":0,"CLASSIFICATION_TYPE":"U","NORAD_CAT_ID":51639,"ELEMENT_SET_NO":999,"REV_AT_EPOCH":16919,"BSTAR":0.0008906,"MEAN_MOTION_DOT":3.24e-6,"MEAN_MOTION_DDOT":0}]
